{
"type": "FeatureCollection",
"name": "fuel",
"crs": { "type": "name", "properties": { "name": "urn:ogc:def:crs:OGC:1.3:CRS84" } },
"features": [
{ "type": "Feature", "properties": { "full_id": "n121152516", "osm_id": "121152516", "osm_type": "node", "amenity": "fuel", "wheelchair": null, "compressed_air": null, "fuel:octane_98": null, "fuel:octane_95": null, "building": null, "addr:state": null, "addr:country": null, "full_name": null, "self_service": null, "opening_hours": null, "fuel:lpg": null, "fuel:e10": null, "fuel:diesel": null, "website": null, "phone": null, "car_wash": null, "atm": null, "addr:street": null, "addr:postcode": null, "addr:housenumber": null, "addr:city": null, "operator": "Caltex", "name": "Caltex", "brand:wikipedia": "en:Caltex", "brand:wikidata": "Q277470", "brand": "Caltex" }, "geometry": { "type": "Point", "coordinates": [ 144.978552900000011, -37.7759371 ] } },
{ "type": "Feature", "properties": { "full_id": "n248969238", "osm_id": "248969238", "osm_type": "node", "amenity": "fuel", "wheelchair": null, "compressed_air": null, "fuel:octane_98": null, "fuel:octane_95": null, "building": null, "addr:state": null, "addr:country": null, "full_name": null, "self_service": null, "opening_hours": null, "fuel:lpg": null, "fuel:e10": null, "fuel:diesel": null, "website": null, "phone": "+61 3 94191647", "car_wash": "no", "atm": "yes", "addr:street": "Nicholson Street", "addr:postcode": "3065", "addr:housenumber": "244", "addr:city": "Fitzroy", "operator": "7-Eleven", "name": "7-Eleven Fuel", "brand:wikipedia": "en:7-Eleven", "brand:wikidata": "Q259340", "brand": "7-Eleven" }, "geometry": { "type": "Point", "coordinates": [ 144.975309, -37.797732 ] } },
{ "type": "Feature", "properties": { "full_id": "n266856243", "osm_id": "266856243", "osm_type": "node", "amenity": "fuel", "wheelchair": null, "compressed_air": null, "fuel:octane_98": null, "fuel:octane_95": null, "building": null, "addr:state": null, "addr:country": null, "full_name": null, "self_service": null, "opening_hours": null, "fuel:lpg": null, "fuel:e10": null, "fuel:diesel": null, "website": "https://www.colesexpress.com.au/", "phone": null, "car_wash": null, "atm": null, "addr:street": null, "addr:postcode": null, "addr:housenumber": null, "addr:city": null, "operator": null, "name": "Coles Express", "brand:wikipedia": "en:Coles Express", "brand:wikidata": "Q5144653", "brand": "Coles Express" }, "geometry": { "type": "Point", "coordinates": [ 144.9186525, -37.7922398 ] } },
{ "type": "Feature", "properties": { "full_id": "n304949427", "osm_id": "304949427", "osm_type": "node", "amenity": "fuel", "wheelchair": null, "compressed_air": null, "fuel:octane_98": null, "fuel:octane_95": null, "building": null, "addr:state": null, "addr:country": null, "full_name": null, "self_service": null, "opening_hours": null, "fuel:lpg": null, "fuel:e10": null, "fuel:diesel": null, "website": null, "phone": null, "car_wash": null, "atm": null, "addr:street": null, "addr:postcode": null, "addr:housenumber": null, "addr:city": null, "operator": "Liberty", "name": "Metro", "brand:wikipedia": "en:Metro Cash & Carry", "brand:wikidata": "Q13610282", "brand": "METRO" }, "geometry": { "type": "Point", "coordinates": [ 144.9753768, -37.7932452 ] } },
{ "type": "Feature", "properties": { "full_id": "n307347250", "osm_id": "307347250", "osm_type": "node", "amenity": "fuel", "wheelchair": null, "compressed_air": null, "fuel:octane_98": null, "fuel:octane_95": null, "building": null, "addr:state": null, "addr:country": null, "full_name": null, "self_service": null, "opening_hours": null, "fuel:lpg": "yes", "fuel:e10": "yes", "fuel:diesel": "yes", "website": null, "phone": "+61 3 93268882", "car_wash": null, "atm": null, "addr:street": "Flemington Road", "addr:postcode": "3051", "addr:housenumber": "235", "addr:city": "North Melbourne", "operator": "Liberty", "name": "Liberty", "brand:wikipedia": null, "brand:wikidata": null, "brand": "Liberty" }, "geometry": { "type": "Point", "coordinates": [ 144.9473446, -37.7941345 ] } },
{ "type": "Feature", "properties": { "full_id": "n463301448", "osm_id": "463301448", "osm_type": "node", "amenity": "fuel", "wheelchair": null, "compressed_air": null, "fuel:octane_98": null, "fuel:octane_95": null, "building": null, "addr:state": null, "addr:country": null, "full_name": null, "self_service": null, "opening_hours": null, "fuel:lpg": null, "fuel:e10": null, "fuel:diesel": null, "website": null, "phone": null, "car_wash": null, "atm": null, "addr:street": null, "addr:postcode": null, "addr:housenumber": null, "addr:city": null, "operator": null, "name": "Ecco Service Centre", "brand:wikipedia": null, "brand:wikidata": null, "brand": null }, "geometry": { "type": "Point", "coordinates": [ 144.9464432, -37.8350429 ] } },
{ "type": "Feature", "properties": { "full_id": "n481694451", "osm_id": "481694451", "osm_type": "node", "amenity": "fuel", "wheelchair": null, "compressed_air": null, "fuel:octane_98": null, "fuel:octane_95": null, "building": null, "addr:state": null, "addr:country": null, "full_name": null, "self_service": null, "opening_hours": "24/7", "fuel:lpg": null, "fuel:e10": null, "fuel:diesel": null, "website": "https://www.7eleven.com.au/", "phone": null, "car_wash": null, "atm": null, "addr:street": null, "addr:postcode": null, "addr:housenumber": null, "addr:city": null, "operator": "7-Eleven", "name": "7-Eleven", "brand:wikipedia": null, "brand:wikidata": null, "brand": "Mobil" }, "geometry": { "type": "Point", "coordinates": [ 144.9550041, -37.8001603 ] } },
{ "type": "Feature", "properties": { "full_id": "n585128132", "osm_id": "585128132", "osm_type": "node", "amenity": "fuel", "wheelchair": null, "compressed_air": null, "fuel:octane_98": null, "fuel:octane_95": null, "building": null, "addr:state": null, "addr:country": null, "full_name": null, "self_service": null, "opening_hours": null, "fuel:lpg": null, "fuel:e10": null, "fuel:diesel": null, "website": null, "phone": null, "car_wash": null, "atm": null, "addr:street": null, "addr:postcode": null, "addr:housenumber": null, "addr:city": null, "operator": null, "name": "BP", "brand:wikipedia": "en:BP", "brand:wikidata": "Q152057", "brand": "BP" }, "geometry": { "type": "Point", "coordinates": [ 144.9576356, -37.8275643 ] } },
{ "type": "Feature", "properties": { "full_id": "n631458694", "osm_id": "631458694", "osm_type": "node", "amenity": "fuel", "wheelchair": null, "compressed_air": null, "fuel:octane_98": null, "fuel:octane_95": null, "building": null, "addr:state": null, "addr:country": null, "full_name": null, "self_service": null, "opening_hours": null, "fuel:lpg": null, "fuel:e10": null, "fuel:diesel": null, "website": "https://www.unitedpetroleum.com.au/", "phone": null, "car_wash": null, "atm": null, "addr:street": null, "addr:postcode": null, "addr:housenumber": null, "addr:city": null, "operator": null, "name": "United", "brand:wikipedia": "en:United Petroleum", "brand:wikidata": "Q28224393", "brand": "United" }, "geometry": { "type": "Point", "coordinates": [ 144.9189096, -37.8309028 ] } },
{ "type": "Feature", "properties": { "full_id": "n631458695", "osm_id": "631458695", "osm_type": "node", "amenity": "fuel", "wheelchair": null, "compressed_air": null, "fuel:octane_98": null, "fuel:octane_95": null, "building": null, "addr:state": null, "addr:country": null, "full_name": null, "self_service": null, "opening_hours": null, "fuel:lpg": null, "fuel:e10": null, "fuel:diesel": null, "website": "https://www.unitedpetroleum.com.au/", "phone": null, "car_wash": null, "atm": null, "addr:street": null, "addr:postcode": null, "addr:housenumber": null, "addr:city": null, "operator": null, "name": "United", "brand:wikipedia": "en:United Petroleum", "brand:wikidata": "Q28224393", "brand": "United" }, "geometry": { "type": "Point", "coordinates": [ 144.9190169, -37.8292207 ] } },
{ "type": "Feature", "properties": { "full_id": "n995570454", "osm_id": "995570454", "osm_type": "node", "amenity": "fuel", "wheelchair": null, "compressed_air": null, "fuel:octane_98": null, "fuel:octane_95": null, "building": null, "addr:state": null, "addr:country": null, "full_name": null, "self_service": "yes", "opening_hours": null, "fuel:lpg": null, "fuel:e10": null, "fuel:diesel": null, "website": null, "phone": "+61 3 94175093", "car_wash": "no", "atm": "yes", "addr:street": "Wellington Street", "addr:postcode": "3066", "addr:housenumber": "318", "addr:city": "Collingwood", "operator": null, "name": "Metro", "brand:wikipedia": "en:Metro Cash & Carry", "brand:wikidata": "Q13610282", "brand": "METRO" }, "geometry": { "type": "Point", "coordinates": [ 144.9878837, -37.797388 ] } },
{ "type": "Feature", "properties": { "full_id": "n1009793950", "osm_id": "1009793950", "osm_type": "node", "amenity": "fuel", "wheelchair": null, "compressed_air": null, "fuel:octane_98": null, "fuel:octane_95": null, "building": null, "addr:state": null, "addr:country": null, "full_name": "Liberty Fitzroy", "self_service": null, "opening_hours": null, "fuel:lpg": null, "fuel:e10": null, "fuel:diesel": null, "website": "http://www.libertypetroleum.com", "phone": null, "car_wash": null, "atm": null, "addr:street": null, "addr:postcode": null, "addr:housenumber": null, "addr:city": null, "operator": null, "name": "Liberty", "brand:wikipedia": null, "brand:wikidata": null, "brand": null }, "geometry": { "type": "Point", "coordinates": [ 144.980002899999988, -37.8082172 ] } },
{ "type": "Feature", "properties": { "full_id": "n2057008288", "osm_id": "2057008288", "osm_type": "node", "amenity": "fuel", "wheelchair": null, "compressed_air": null, "fuel:octane_98": null, "fuel:octane_95": null, "building": "yes", "addr:state": "VIC", "addr:country": "AU", "full_name": null, "self_service": null, "opening_hours": null, "fuel:lpg": null, "fuel:e10": null, "fuel:diesel": null, "website": "http://www.bp.com.au/", "phone": "+61 3 94816185", "car_wash": "yes", "atm": "yes", "addr:street": "St Georges Road", "addr:postcode": "3068", "addr:housenumber": "257", "addr:city": "Fitzroy North", "operator": "BP", "name": "AA North Fitzroy", "brand:wikipedia": null, "brand:wikidata": null, "brand": "BP" }, "geometry": { "type": "Point", "coordinates": [ 144.984574, -37.782176 ] } },
{ "type": "Feature", "properties": { "full_id": "n2103425268", "osm_id": "2103425268", "osm_type": "node", "amenity": "fuel", "wheelchair": null, "compressed_air": null, "fuel:octane_98": "yes", "fuel:octane_95": "yes", "building": null, "addr:state": null, "addr:country": null, "full_name": null, "self_service": null, "opening_hours": null, "fuel:lpg": "yes", "fuel:e10": null, "fuel:diesel": "yes", "website": "https://www.bp.com/", "phone": "+61 3 93475193", "car_wash": null, "atm": null, "addr:street": "Elgin Street", "addr:postcode": "3053", "addr:housenumber": "117", "addr:city": "Carlton", "operator": "BP", "name": "BP", "brand:wikipedia": "en:BP", "brand:wikidata": "Q152057", "brand": "BP" }, "geometry": { "type": "Point", "coordinates": [ 144.970755, -37.797729 ] } },
{ "type": "Feature", "properties": { "full_id": "n2108183545", "osm_id": "2108183545", "osm_type": "node", "amenity": "fuel", "wheelchair": "yes", "compressed_air": "yes", "fuel:octane_98": null, "fuel:octane_95": null, "building": null, "addr:state": null, "addr:country": null, "full_name": null, "self_service": null, "opening_hours": null, "fuel:lpg": null, "fuel:e10": null, "fuel:diesel": null, "website": null, "phone": null, "car_wash": "no", "atm": null, "addr:street": null, "addr:postcode": null, "addr:housenumber": null, "addr:city": null, "operator": null, "name": "BP Fitzroy", "brand:wikipedia": "en:BP", "brand:wikidata": "Q152057", "brand": "BP" }, "geometry": { "type": "Point", "coordinates": [ 144.979829, -37.798296 ] } },
{ "type": "Feature", "properties": { "full_id": "n3249049197", "osm_id": "3249049197", "osm_type": "node", "amenity": "fuel", "wheelchair": null, "compressed_air": "yes", "fuel:octane_98": null, "fuel:octane_95": null, "building": null, "addr:state": null, "addr:country": null, "full_name": null, "self_service": null, "opening_hours": null, "fuel:lpg": null, "fuel:e10": null, "fuel:diesel": null, "website": null, "phone": null, "car_wash": null, "atm": null, "addr:street": null, "addr:postcode": null, "addr:housenumber": null, "addr:city": null, "operator": null, "name": "Kerby", "brand:wikipedia": null, "brand:wikidata": null, "brand": null }, "geometry": { "type": "Point", "coordinates": [ 144.9227271, -37.7778161 ] } },
{ "type": "Feature", "properties": { "full_id": "n3321876887", "osm_id": "3321876887", "osm_type": "node", "amenity": "fuel", "wheelchair": "yes", "compressed_air": null, "fuel:octane_98": null, "fuel:octane_95": null, "building": null, "addr:state": null, "addr:country": null, "full_name": null, "self_service": null, "opening_hours": "24/7", "fuel:lpg": null, "fuel:e10": null, "fuel:diesel": null, "website": "www.7-eleven.com.au", "phone": null, "car_wash": null, "atm": null, "addr:street": null, "addr:postcode": null, "addr:housenumber": null, "addr:city": null, "operator": null, "name": "7-Eleven", "brand:wikipedia": "en:7-Eleven", "brand:wikidata": "Q259340", "brand": "7-Eleven" }, "geometry": { "type": "Point", "coordinates": [ 144.9397339, -37.7894122 ] } },
{ "type": "Feature", "properties": { "full_id": "n3882838282", "osm_id": "3882838282", "osm_type": "node", "amenity": "fuel", "wheelchair": null, "compressed_air": null, "fuel:octane_98": null, "fuel:octane_95": null, "building": null, "addr:state": null, "addr:country": null, "full_name": null, "self_service": null, "opening_hours": null, "fuel:lpg": null, "fuel:e10": null, "fuel:diesel": null, "website": "https://www.colesexpress.com.au/", "phone": null, "car_wash": null, "atm": null, "addr:street": null, "addr:postcode": null, "addr:housenumber": null, "addr:city": null, "operator": "Eureka Operations", "name": "Coles Express", "brand:wikipedia": "en:Coles Express", "brand:wikidata": "Q5144653", "brand": "Coles Express" }, "geometry": { "type": "Point", "coordinates": [ 144.9175361, -37.829519 ] } },
{ "type": "Feature", "properties": { "full_id": "n3949687613", "osm_id": "3949687613", "osm_type": "node", "amenity": "fuel", "wheelchair": null, "compressed_air": null, "fuel:octane_98": null, "fuel:octane_95": null, "building": null, "addr:state": null, "addr:country": null, "full_name": null, "self_service": null, "opening_hours": null, "fuel:lpg": null, "fuel:e10": null, "fuel:diesel": null, "website": null, "phone": null, "car_wash": null, "atm": null, "addr:street": null, "addr:postcode": null, "addr:housenumber": null, "addr:city": null, "operator": "Shell", "name": "Shell", "brand:wikipedia": "en:Royal Dutch Shell", "brand:wikidata": "Q154950", "brand": "Shell" }, "geometry": { "type": "Point", "coordinates": [ 144.979571600000014, -37.7928126 ] } },
{ "type": "Feature", "properties": { "full_id": "n7034469846", "osm_id": "7034469846", "osm_type": "node", "amenity": "fuel", "wheelchair": null, "compressed_air": null, "fuel:octane_98": null, "fuel:octane_95": null, "building": null, "addr:state": null, "addr:country": null, "full_name": null, "self_service": null, "opening_hours": null, "fuel:lpg": null, "fuel:e10": null, "fuel:diesel": null, "website": null, "phone": null, "car_wash": null, "atm": null, "addr:street": null, "addr:postcode": null, "addr:housenumber": null, "addr:city": null, "operator": null, "name": null, "brand:wikipedia": null, "brand:wikidata": null, "brand": null }, "geometry": { "type": "Point", "coordinates": [ 144.987622, -37.7984155 ] } }
]
}
